      2.10          N: GNSS NAV DATA                        RINEX VERSION / TYPE
fic2rin                                 03/29/2021 00:17:20 PGM / RUN BY / DATE
                                                            END OF HEADER
 3 21  3 28 10  0  0.0-1.206411980093e-04-1.080024958355e-11 0.000000000000e+00
    1.600000000000e+01-3.546875000000e+01 5.085211819484e-09-8.811500693801e-02
   -1.853331923485e-06 3.349536797032e-03 2.659857273102e-06 5.153619588852e+03
    3.600000000000e+04 1.862645149231e-09-1.395583756351e+00 6.332993507385e-08
    9.682945691497e-01 3.368437500000e+02 8.276393085107e-01-8.660360738787e-09
   -1.357199389945e-10 1.000000000000e+00 2.151000000000e+03 0.000000000000e+00
    2.400000000000e+00 0.000000000000e+00 1.862645149231e-09 1.600000000000e+01
    2.880000000000e+04 4.000000000000e+00
 2 21  3 28 10  0  0.0-5.903840065002e-04-3.637978807092e-12 0.000000000000e+00
    3.800000000000e+01 8.368750000000e+01 4.417684014271e-09 1.263687615307e+00
    4.224479198456e-06 2.031047933269e-02 9.762123227119e-06 5.153643144608e+03
    3.600000000000e+04-2.663582563400e-07-2.516597099742e+00-4.861503839493e-07
    9.625282976014e-01 1.909687500000e+02-1.529343340500e+00-8.254272395006e-09
    6.275261389825e-10 1.000000000000e+00 2.151000000000e+03 0.000000000000e+00
    2.400000000000e+00 0.000000000000e+00-1.769512891769e-08 3.800000000000e+01
    2.880000000000e+04 4.000000000000e+00
 1 21  3 28 10  0  0.0 7.306388579309e-04-9.322320693173e-12 0.000000000000e+00
    4.100000000000e+01 1.007187500000e+02 4.008738408617e-09 1.010685360542e+00
    5.215406417847e-06 1.058995211497e-02 9.870156645775e-06 5.153689622879e+03
    3.600000000000e+04-4.470348358154e-08-2.434041221004e+00 8.009374141693e-08
    9.837375317711e-01 2.002187500000e+02 8.234871432363e-01-8.092122783681e-09
    6.025250975888e-10 1.000000000000e+00 2.151000000000e+03 0.000000000000e+00
    2.400000000000e+00 0.000000000000e+00 4.656612873077e-09 4.100000000000e+01
    2.880000000000e+04 4.000000000000e+00
 5 21  3 28 10  0  0.0-3.746803849936e-05-1.136868377216e-12 0.000000000000e+00
    1.030000000000e+02-3.125000000000e+01 5.249504377214e-09-2.501321099961e+00
   -1.892447471619e-06 6.008580559865e-03 2.246350049973e-06 5.153839300156e+03
    3.600000000000e+04 1.490116119385e-07-1.431646935510e+00-8.940696716309e-08
    9.552338632903e-01 3.318437500000e+02 8.796918048432e-01-8.650003164495e-09
   -2.892977646988e-11 1.000000000000e+00 2.151000000000e+03 0.000000000000e+00
    2.400000000000e+00 0.000000000000e+00-1.117587089539e-08 1.030000000000e+02
    2.880000000000e+04 4.000000000000e+00
 6 21  3 28 10  0  0.0 3.372319042683e-06 2.273736754432e-12 0.000000000000e+00
    7.500000000000e+01 9.156250000000e+01 3.943378543259e-09 1.285494995718e+00
    4.900619387627e-06 2.327619120479e-03 9.447336196899e-06 5.153732597351e+03
    3.600000000000e+04 2.607703208923e-08-2.442294479620e+00-8.754432201385e-08
    9.832195622185e-01 2.069375000000e+02-1.019484369525e+00-7.853898574972e-09
    6.607418082628e-10 1.000000000000e+00 2.151000000000e+03 0.000000000000e+00
    2.400000000000e+00 0.000000000000e+00 3.725290298462e-09 7.500000000000e+01
    2.880000000000e+04 4.000000000000e+00
13 21  3 28 10  0  0.0 1.130760647357e-04 4.433786671143e-12 0.000000000000e+00
    5.000000000000e+00-4.428125000000e+01 4.126957618636e-09 2.589291888046e+00
   -2.337619662285e-06 4.913526936434e-03 1.335889101028e-05 5.153689146042e+03
    3.600000000000e+04-1.862645149231e-08-2.178231930732e-01-7.264316082001e-08
    9.685796392183e-01 1.260625000000e+02 1.000075712482e+00-7.707463903951e-09
   -2.067943280995e-10 1.000000000000e+00 2.151000000000e+03 0.000000000000e+00
    2.400000000000e+00 0.000000000000e+00-1.117587089539e-08 5.000000000000e+00
    2.880000000000e+04 4.000000000000e+00
 9 21  3 28 10  0  0.0-3.346288576722e-04-2.955857780762e-12 0.000000000000e+00
    1.100000000000e+01-8.728125000000e+01 4.577690679191e-09-2.607684217863e+00
   -4.403293132782e-06 1.831014407799e-03 1.298636198044e-05 5.153553598404e+03
    3.600000000000e+04 3.725290298462e-08-3.654424382358e-01-3.725290298462e-09
    9.536421279596e-01 1.273750000000e+02 1.829087675563e+00-8.044977962767e-09
   -3.568005764619e-10 1.000000000000e+00 2.151000000000e+03 0.000000000000e+00
    2.400000000000e+00 0.000000000000e+00 1.396983861923e-09 1.100000000000e+01
    2.880000000000e+04 4.000000000000e+00
 8 21  3 28 10  0  0.0-1.540780067444e-05-1.477928890381e-12 0.000000000000e+00
    2.200000000000e+01-6.309375000000e+01 3.995166414717e-09-3.057175899167e+00
   -3.200024366379e-06 6.321969558485e-03 1.399964094162e-05 5.153580896378e+03
    3.600000000000e+04-7.450580596924e-09 2.775972086060e+00-2.607703208923e-08
    9.680675110976e-01 1.130625000000e+02 1.372040730432e-02-7.756394513536e-09
   -4.278749655669e-10 1.000000000000e+00 2.151000000000e+03 0.000000000000e+00
    2.400000000000e+00 0.000000000000e+00 5.122274160385e-09 2.200000000000e+01
    2.880000000000e+04 4.000000000000e+00
 7 21  3 28 10  0  0.0 1.042671501637e-04 1.205080479849e-11 0.000000000000e+00
    7.200000000000e+01 9.050000000000e+01 4.969492713604e-09 4.128033738432e-01
    4.999339580536e-06 1.462653989438e-02 9.059906005859e-06 5.153595094681e+03
    3.600000000000e+04-3.911554813385e-08 7.068321830604e-01 1.136213541031e-07
    9.520775560918e-01 1.993125000000e+02-2.344942145647e+00-8.574285724845e-09
    4.068026592493e-10 1.000000000000e+00 2.151000000000e+03 0.000000000000e+00
    3.400000000000e+00 0.000000000000e+00-1.117587089539e-08 7.200000000000e+01
    2.880000000000e+04 4.000000000000e+00
 4 21  3 28 10  0  0.0-1.887539401650e-04-2.160049916711e-12 0.000000000000e+00
    0.000000000000e+00-7.365625000000e+01 4.392682972878e-09 2.685917973893e+00
   -3.712251782417e-06 1.141253625974e-03 1.365877687931e-05 5.153776935577e+03
    3.600000000000e+04-2.048909664154e-08-3.151117760017e-01-2.607703208923e-08
    9.608372491510e-01 1.178750000000e+02-2.976317087325e+00-7.944259481723e-09
   -3.200133298397e-10 1.000000000000e+00 2.151000000000e+03 0.000000000000e+00
    2.400000000000e+00 0.000000000000e+00-4.190951585770e-09 2.560000000000e+02
    2.880000000000e+04 4.000000000000e+00
29 21  3 28 10  0  0.0-3.198906779289e-04-6.821210263297e-12 0.000000000000e+00
    3.100000000000e+01-3.181250000000e+01 3.641580257863e-09-2.926937106793e+00
   -1.676380634308e-06 1.658234978095e-03 1.339614391327e-05 5.153667188644e+03
    3.600000000000e+04 3.911554813385e-08 2.865342265007e+00-1.303851604462e-08
    9.846573078663e-01 1.349375000000e+02 2.110428417803e+00-7.533528087398e-09
   -3.353711124101e-10 1.000000000000e+00 2.151000000000e+03 0.000000000000e+00
    3.400000000000e+00 0.000000000000e+00-1.024454832077e-08 3.100000000000e+01
    2.880000000000e+04 4.000000000000e+00
22 21  3 28 10  0  0.0-6.507900543511e-04 8.412825991400e-12 0.000000000000e+00
    1.800000000000e+01-1.671875000000e+01 5.850243686132e-09 2.196787977174e+00
   -1.043081283569e-06 7.062135613523e-03 1.456588506699e-06 5.153566814423e+03
    3.600000000000e+04 9.313225746155e-08-1.492982261481e+00 2.980232238770e-08
    9.337516208116e-01 3.385312500000e+02-1.008956778003e+00-8.961444708714e-09
   -8.786080261224e-11 1.000000000000e+00 2.151000000000e+03 0.000000000000e+00
    2.400000000000e+00 0.000000000000e+00-1.816079020500e-08 1.800000000000e+01
    2.880000000000e+04 4.000000000000e+00
19 21  3 28 10  0  0.0-2.047512680292e-05 5.002220859751e-12 0.000000000000e+00
    1.200000000000e+01-4.287500000000e+01 3.658366671370e-09-5.992912756643e-01
   -2.153217792511e-06 9.126919787377e-03 1.350231468678e-05 5.153627872467e+03
    3.600000000000e+04-2.086162567139e-07 2.898204474078e+00 9.872019290924e-08
    9.813176575336e-01 1.340312500000e+02 1.799207329487e+00-7.682820020292e-09
   -1.525063525017e-10 1.000000000000e+00 2.151000000000e+03 0.000000000000e+00
    2.400000000000e+00 0.000000000000e+00-1.583248376846e-08 1.200000000000e+01
    2.880000000000e+04 4.000000000000e+00
15 21  3 28 10  0  0.0-1.600892283022e-04 2.614797267597e-12 0.000000000000e+00
    2.600000000000e+01-8.940625000000e+01 5.135213902271e-09 2.253025248688e+00
   -4.770234227180e-06 1.307887840085e-02 1.132115721703e-05 5.153595565796e+03
    3.600000000000e+04-6.891787052155e-08-4.628675626233e-01-2.533197402954e-07
    9.292096756442e-01 1.455312500000e+02 9.725209277774e-01-8.184269479103e-09
   -3.828730910582e-10 1.000000000000e+00 2.151000000000e+03 0.000000000000e+00
    2.400000000000e+00 0.000000000000e+00-1.071020960808e-08 2.600000000000e+01
    2.880000000000e+04 4.000000000000e+00
31 21  3 28 10  0  0.0-1.082359813154e-04-2.273736754432e-12 0.000000000000e+00
    6.100000000000e+01 9.693750000000e+01 4.835201405547e-09-1.214350142786e-01
    5.017966032028e-06 9.957354282960e-03 8.812174201012e-06 5.153760896683e+03
    3.600000000000e+04 1.452863216400e-07 7.236419939308e-01 8.381903171539e-08
    9.563937949433e-01 2.063125000000e+02 2.548743554199e-01-8.447137571472e-09
    5.121641908372e-10 1.000000000000e+00 2.151000000000e+03 0.000000000000e+00
    2.400000000000e+00 0.000000000000e+00-1.303851604462e-08 6.100000000000e+01
    2.880000000000e+04 4.000000000000e+00
24 21  3 28 10  0  0.0 4.991888999939e-07-4.547473508865e-13 0.000000000000e+00
    4.000000000000e+01 8.996875000000e+01 5.208788395516e-09 1.367465910570e+00
    4.822388291359e-06 1.101750042289e-02 1.002475619316e-05 5.153746171951e+03
    3.600000000000e+04-1.974403858185e-07 6.295539626952e-01 1.676380634308e-07
    9.355237207752e-01 1.743750000000e+02 7.370128852364e-01-8.566071096959e-09
    3.771585673111e-10 1.000000000000e+00 2.151000000000e+03 0.000000000000e+00
    2.400000000000e+00 0.000000000000e+00 2.793967723846e-09 4.000000000000e+01
    2.880000000000e+04 4.000000000000e+00
